LEMUR-2-LEIA-PHILIP     
1 63246U 25052AN  26196.27028868  .00000141  00000+0  17093-4 0  9999
2 63246  97.6805  87.7451 0005095 119.1718 241.0014 14.97391480 72879
LEMUR-2-LIA-MARTIN      
1 63248U 25052AQ  26196.26481194  .00002027  00000+0  17643-3 0  9990
2 63248  97.6869  88.2585 0005299  89.7289 270.4540 14.98030415 72886
LEMUR-2-DELOITTE-1      
1 63259U 25052BB  26196.57931293  .00002441  00000+0  21287-3 0  9995
2 63259  97.6881  88.8983 0002572  64.8549 295.2940 14.97784138 72947
LEMUR-2-EMERSONROSE     
1 63261U 25052BD  26196.52636810  .00002736  00000+0  22890-3 0  9998
2 63261  97.6885  89.4601 0002709  60.0626 300.0865 14.99293057 72986
LEMUR-2-MARACHE-FRAN    
1 63262U 25052BE  26196.21538038  .00001678  00000+0  13855-3 0  9993
2 63262  97.6837  89.5210 0005176 252.2220 107.8439 15.00315354 72963
LEMUR-2-THEFALCONER     
1 63264U 25052BG  26196.27574090  .00001069  00000+0  96508-4 0  9990
2 63264  97.6830  88.1900 0000294 296.3949  63.7243 14.97563100 72896
LEMUR-2-UNTITLED-SC     
1 63351U 25061A   26196.91310462  .00001751  00000+0  10072-3 0  9998
2 63351  97.5657 172.0714 0019260 160.7260 199.4704 15.13648334 71933
LEMUR-2-ESPERANZA       
1 63352U 25061B   26196.88838930  .00001751  00000+0  10045-3 0  9990
2 63352  97.5664 172.1471 0018885 159.9774 200.2202 15.13754973 71936
LEMUR-2-KREMPEL-BRO2    
1 63353U 25061C   26196.90716517  .00001626  00000+0  92420-4 0  9999
2 63353  97.5706 172.7357 0020060 152.8912 207.3371 15.14181271 71950
LEMUR-2-THERMORAPTOR    
1 63354U 25061D   26196.88768537  .00002072  00000+0  11648-3 0  9994
2 63354  97.5712 172.7977 0019789 151.8094 208.4213 15.14264291 71953
LEMUR-2-NEUROSPICY      
1 63355U 25061E   26196.92321868  .00001688  00000+0  95343-4 0  9999
2 63355  97.5639 172.4370 0017581 154.5524 205.6577 15.14383522 71964
LEMUR-2-TILLINFINITY    
1 63356U 25061F   26196.88136137  .00002199  00000+0  12104-3 0  9999
2 63356  97.5625 172.7060 0019136 143.6125 216.6413 15.14967400 71989
LEMUR-2-KREMPEL-BRO1    
1 63357U 25061G   26196.92455597  .00001722  00000+0  96037-4 0  9998
2 63357  97.5626 172.6569 0019754 144.8713 215.3826 15.14774664 71988
LEMUR-2-LANGER2SPACE    
1 63358U 25061H   26196.89075938  .00002014  00000+0  11277-3 0  9999
2 63358  97.5633 172.4259 0017462 152.9152 207.2994 15.14467754 71965
LEMUR-2-BALTO           
1 63395U 25052BH  26196.93335371  .00002472  00000+0  20164-3 0  9998
2 63395  97.6928  90.2192 0005087 324.4580  35.6304 15.00367882 73076
LEMUR-2-KRISH           
1 64561U 25135AK  26196.82904968  .00001773  00000+0  16140-3 0  9990
2 64561  97.7774 311.5152 0001279  96.4865 263.6502 14.96451015 58205
