{"fetched_at":"2026-07-16T06:42:38.478Z","source":"https://celestrak.org/NORAD/elements/gp.php?GROUP=spire&FORMAT=JSON","constellation":"spire","records":[{"OBJECT_NAME":"LEMUR-2-LEIA-PHILIP","OBJECT_ID":"2025-052AN","EPOCH":"2026-07-15T06:29:12.941952","CLASSIFICATION_TYPE":"U","MEAN_MOTION":14.9739148,"ECCENTRICITY":0.00050958,"INCLINATION":97.6805,"RA_OF_ASC_NODE":87.7451,"ARG_OF_PERICENTER":119.1718,"MEAN_ANOMALY":241.0014,"EPHEMERIS_TYPE":0,"NORAD_CAT_ID":63246,"ELEMENT_SET_NO":999,"REV_AT_EPOCH":7287,"BSTAR":0.000017093362,"MEAN_MOTION_DOT":0.00000141,"MEAN_MOTION_DDOT":0},{"OBJECT_NAME":"LEMUR-2-LIA-MARTIN","OBJECT_ID":"2025-052AQ","EPOCH":"2026-07-15T06:21:19.751616","CLASSIFICATION_TYPE":"U","MEAN_MOTION":14.98030415,"ECCENTRICITY":0.00052999,"INCLINATION":97.6869,"RA_OF_ASC_NODE":88.2585,"ARG_OF_PERICENTER":89.7289,"MEAN_ANOMALY":270.454,"EPHEMERIS_TYPE":0,"NORAD_CAT_ID":63248,"ELEMENT_SET_NO":999,"REV_AT_EPOCH":7288,"BSTAR":0.0001764308,"MEAN_MOTION_DOT":0.00002027,"MEAN_MOTION_DDOT":0},{"OBJECT_NAME":"LEMUR-2-DELOITTE-1","OBJECT_ID":"2025-052BB","EPOCH":"2026-07-15T13:54:12.637152","CLASSIFICATION_TYPE":"U","MEAN_MOTION":14.97784138,"ECCENTRICITY":0.0002572,"INCLINATION":97.6881,"RA_OF_ASC_NODE":88.8983,"ARG_OF_PERICENTER":64.8549,"MEAN_ANOMALY":295.294,"EPHEMERIS_TYPE":0,"NORAD_CAT_ID":63259,"ELEMENT_SET_NO":999,"REV_AT_EPOCH":7294,"BSTAR":0.00021287,"MEAN_MOTION_DOT":0.00002441,"MEAN_MOTION_DDOT":0},{"OBJECT_NAME":"LEMUR-2-EMERSONROSE","OBJECT_ID":"2025-052BD","EPOCH":"2026-07-15T12:37:58.203840","CLASSIFICATION_TYPE":"U","MEAN_MOTION":14.99293057,"ECCENTRICITY":0.00027092,"INCLINATION":97.6885,"RA_OF_ASC_NODE":89.4601,"ARG_OF_PERICENTER":60.0626,"MEAN_ANOMALY":300.0865,"EPHEMERIS_TYPE":0,"NORAD_CAT_ID":63261,"ELEMENT_SET_NO":999,"REV_AT_EPOCH":7298,"BSTAR":0.00022890076,"MEAN_MOTION_DOT":0.00002736,"MEAN_MOTION_DDOT":0},{"OBJECT_NAME":"LEMUR-2-MARACHE-FRAN","OBJECT_ID":"2025-052BE","EPOCH":"2026-07-15T05:10:08.864832","CLASSIFICATION_TYPE":"U","MEAN_MOTION":15.00315354,"ECCENTRICITY":0.00051768,"INCLINATION":97.6837,"RA_OF_ASC_NODE":89.521,"ARG_OF_PERICENTER":252.222,"MEAN_ANOMALY":107.8439,"EPHEMERIS_TYPE":0,"NORAD_CAT_ID":63262,"ELEMENT_SET_NO":999,"REV_AT_EPOCH":7296,"BSTAR":0.00013855465,"MEAN_MOTION_DOT":0.00001678,"MEAN_MOTION_DDOT":0},{"OBJECT_NAME":"LEMUR-2-THEFALCONER","OBJECT_ID":"2025-052BG","EPOCH":"2026-07-15T06:37:04.013760","CLASSIFICATION_TYPE":"U","MEAN_MOTION":14.975631,"ECCENTRICITY":0.00002945,"INCLINATION":97.683,"RA_OF_ASC_NODE":88.19,"ARG_OF_PERICENTER":296.3949,"MEAN_ANOMALY":63.7243,"EPHEMERIS_TYPE":0,"NORAD_CAT_ID":63264,"ELEMENT_SET_NO":999,"REV_AT_EPOCH":7289,"BSTAR":0.000096507585,"MEAN_MOTION_DOT":0.00001069,"MEAN_MOTION_DDOT":0},{"OBJECT_NAME":"LEMUR-2-UNTITLED-SC","OBJECT_ID":"2025-061A","EPOCH":"2026-07-15T21:54:52.239168","CLASSIFICATION_TYPE":"U","MEAN_MOTION":15.13648334,"ECCENTRICITY":0.00192605,"INCLINATION":97.5657,"RA_OF_ASC_NODE":172.0714,"ARG_OF_PERICENTER":160.726,"MEAN_ANOMALY":199.4704,"EPHEMERIS_TYPE":0,"NORAD_CAT_ID":63351,"ELEMENT_SET_NO":999,"REV_AT_EPOCH":7193,"BSTAR":0.00010072475,"MEAN_MOTION_DOT":0.00001751,"MEAN_MOTION_DDOT":0},{"OBJECT_NAME":"LEMUR-2-ESPERANZA","OBJECT_ID":"2025-061B","EPOCH":"2026-07-15T21:19:16.835520","CLASSIFICATION_TYPE":"U","MEAN_MOTION":15.13754973,"ECCENTRICITY":0.00188853,"INCLINATION":97.5664,"RA_OF_ASC_NODE":172.1471,"ARG_OF_PERICENTER":159.9774,"MEAN_ANOMALY":200.2202,"EPHEMERIS_TYPE":0,"NORAD_CAT_ID":63352,"ELEMENT_SET_NO":999,"REV_AT_EPOCH":7193,"BSTAR":0.00010044626,"MEAN_MOTION_DOT":0.00001751,"MEAN_MOTION_DDOT":0},{"OBJECT_NAME":"LEMUR-2-KREMPEL-BRO2","OBJECT_ID":"2025-061C","EPOCH":"2026-07-15T21:46:19.070688","CLASSIFICATION_TYPE":"U","MEAN_MOTION":15.14181271,"ECCENTRICITY":0.00200603,"INCLINATION":97.5706,"RA_OF_ASC_NODE":172.7357,"ARG_OF_PERICENTER":152.8912,"MEAN_ANOMALY":207.3371,"EPHEMERIS_TYPE":0,"NORAD_CAT_ID":63353,"ELEMENT_SET_NO":999,"REV_AT_EPOCH":7195,"BSTAR":0.000092419575,"MEAN_MOTION_DOT":0.00001626,"MEAN_MOTION_DDOT":0},{"OBJECT_NAME":"LEMUR-2-THERMORAPTOR","OBJECT_ID":"2025-061D","EPOCH":"2026-07-15T21:18:16.015968","CLASSIFICATION_TYPE":"U","MEAN_MOTION":15.14264291,"ECCENTRICITY":0.00197894,"INCLINATION":97.5712,"RA_OF_ASC_NODE":172.7977,"ARG_OF_PERICENTER":151.8094,"MEAN_ANOMALY":208.4213,"EPHEMERIS_TYPE":0,"NORAD_CAT_ID":63354,"ELEMENT_SET_NO":999,"REV_AT_EPOCH":7195,"BSTAR":0.00011648411,"MEAN_MOTION_DOT":0.00002072,"MEAN_MOTION_DDOT":0},{"OBJECT_NAME":"LEMUR-2-NEUROSPICY","OBJECT_ID":"2025-061E","EPOCH":"2026-07-15T22:09:26.093952","CLASSIFICATION_TYPE":"U","MEAN_MOTION":15.14383522,"ECCENTRICITY":0.00175818,"INCLINATION":97.5639,"RA_OF_ASC_NODE":172.437,"ARG_OF_PERICENTER":154.5524,"MEAN_ANOMALY":205.6577,"EPHEMERIS_TYPE":0,"NORAD_CAT_ID":63355,"ELEMENT_SET_NO":999,"REV_AT_EPOCH":7196,"BSTAR":0.000095343224,"MEAN_MOTION_DOT":0.00001688,"MEAN_MOTION_DDOT":0},{"OBJECT_NAME":"LEMUR-2-TILLINFINITY","OBJECT_ID":"2025-061F","EPOCH":"2026-07-15T21:09:09.622368","CLASSIFICATION_TYPE":"U","MEAN_MOTION":15.149674,"ECCENTRICITY":0.00191366,"INCLINATION":97.5625,"RA_OF_ASC_NODE":172.706,"ARG_OF_PERICENTER":143.6125,"MEAN_ANOMALY":216.6413,"EPHEMERIS_TYPE":0,"NORAD_CAT_ID":63356,"ELEMENT_SET_NO":999,"REV_AT_EPOCH":7198,"BSTAR":0.00012103532,"MEAN_MOTION_DOT":0.00002199,"MEAN_MOTION_DDOT":0},{"OBJECT_NAME":"LEMUR-2-KREMPEL-BRO1","OBJECT_ID":"2025-061G","EPOCH":"2026-07-15T22:11:21.635808","CLASSIFICATION_TYPE":"U","MEAN_MOTION":15.14774664,"ECCENTRICITY":0.00197546,"INCLINATION":97.5626,"RA_OF_ASC_NODE":172.6569,"ARG_OF_PERICENTER":144.8713,"MEAN_ANOMALY":215.3826,"EPHEMERIS_TYPE":0,"NORAD_CAT_ID":63357,"ELEMENT_SET_NO":999,"REV_AT_EPOCH":7198,"BSTAR":0.000096036586,"MEAN_MOTION_DOT":0.00001722,"MEAN_MOTION_DDOT":0},{"OBJECT_NAME":"LEMUR-2-LANGER2SPACE","OBJECT_ID":"2025-061H","EPOCH":"2026-07-15T21:22:41.610432","CLASSIFICATION_TYPE":"U","MEAN_MOTION":15.14467754,"ECCENTRICITY":0.0017462,"INCLINATION":97.5633,"RA_OF_ASC_NODE":172.4259,"ARG_OF_PERICENTER":152.9152,"MEAN_ANOMALY":207.2994,"EPHEMERIS_TYPE":0,"NORAD_CAT_ID":63358,"ELEMENT_SET_NO":999,"REV_AT_EPOCH":7196,"BSTAR":0.00011276979,"MEAN_MOTION_DOT":0.00002014,"MEAN_MOTION_DDOT":0},{"OBJECT_NAME":"LEMUR-2-BALTO","OBJECT_ID":"2025-052BH","EPOCH":"2026-07-15T22:24:01.760544","CLASSIFICATION_TYPE":"U","MEAN_MOTION":15.00367882,"ECCENTRICITY":0.00050871,"INCLINATION":97.6928,"RA_OF_ASC_NODE":90.2192,"ARG_OF_PERICENTER":324.458,"MEAN_ANOMALY":35.6304,"EPHEMERIS_TYPE":0,"NORAD_CAT_ID":63395,"ELEMENT_SET_NO":999,"REV_AT_EPOCH":7307,"BSTAR":0.00020163538,"MEAN_MOTION_DOT":0.00002472,"MEAN_MOTION_DDOT":0},{"OBJECT_NAME":"LEMUR-2-KRISH","OBJECT_ID":"2025-135AK","EPOCH":"2026-07-15T19:53:49.892352","CLASSIFICATION_TYPE":"U","MEAN_MOTION":14.96451015,"ECCENTRICITY":0.00012799,"INCLINATION":97.7774,"RA_OF_ASC_NODE":311.5152,"ARG_OF_PERICENTER":96.4865,"MEAN_ANOMALY":263.6502,"EPHEMERIS_TYPE":0,"NORAD_CAT_ID":64561,"ELEMENT_SET_NO":999,"REV_AT_EPOCH":5820,"BSTAR":0.00016139543,"MEAN_MOTION_DOT":0.00001773,"MEAN_MOTION_DDOT":0}]}
